[{"OBJECT_NAME":"ASTROCAST-0402","OBJECT_ID":"2023-001DE","EPOCH":"2026-03-09T19:21:31.190400","MEAN_MOTION":15.26734153,"ECCENTRICITY":0.00042092,"INCLINATION":97.5556,"RA_OF_ASC_NODE":160.6821,"ARG_OF_PERICENTER":216.6984,"MEAN_ANOMALY":143.3966,"EPHEMERIS_TYPE":0,"CLASSIFICATION_TYPE":"U","NORAD_CAT_ID":55109,"ELEMENT_SET_NO":999,"REV_AT_EPOCH":12936,"BSTAR":0.00041835119,"MEAN_MOTION_DOT":0.0001093,"MEAN_MOTION_DDOT":0},{"OBJECT_NAME":"STARLINK-30931","OBJECT_ID":"2023-180M","EPOCH":"2026-03-09T22:12:15.948576","MEAN_MOTION":15.2674416,"ECCENTRICITY":8.208e-5,"INCLINATION":43.0053,"RA_OF_ASC_NODE":39.9328,"ARG_OF_PERICENTER":198.366,"MEAN_ANOMALY":161.7162,"EPHEMERIS_TYPE":0,"CLASSIFICATION_TYPE":"U","NORAD_CAT_ID":58413,"ELEMENT_SET_NO":999,"REV_AT_EPOCH":12779,"BSTAR":2.2262741e-5,"MEAN_MOTION_DOT":3.38e-6,"MEAN_MOTION_DDOT":0}]
